NORAD_CAT_ID,OBJECT_NAME,OBJECT_TYPE,EPOCH,MEAN_MOTION,ECCENTRICITY,INCLINATION,RA_OF_ASC_NODE,ARG_OF_PERICENTER,MEAN_ANOMALY,BSTAR,MEAN_MOTION_DOT,MEAN_MOTION_DDOT,TLE_LINE0,TLE_LINE1,TLE_LINE2,SEMIMAJOR_AXIS,PERIOD,APOGEE,PERIGEE,DECAYED
50158.0,STARLINK-3309,PAYLOAD,2022-08-27 09:47:10,15.08853091,0.0001808,53.2167,291.4343,56.292,303.8244,0.00018416,2.645e-05,0.0,0 STARLINK-3309,1 50158U 21125C   22239.40775787  .00002645  00000-0  18416-3 0  9993,2 50158  53.2167 291.4343 0001808  56.2920 303.8244 15.08853091 41731,6917.84,95.437,540.956,538.455,0.0
50158.0,STARLINK-3309,PAYLOAD,2022-08-27 20:54:52,15.08852434,0.0001962,53.2152,289.3532,51.93600000000001,308.1809,0.00017594,2.514e-05,0.0,0 STARLINK-3309,1 50158U 21125C   22239.87143712  .00002514  00000-0  17594-3 0  9992,2 50158  53.2152 289.3532 0001962  51.9360 308.1809 15.08852434 41805,6917.842,95.437,541.065,538.35,0.0
50158.0,STARLINK-3309,PAYLOAD,2022-08-28 03:16:24,15.088478899999998,0.0001974,53.2154,288.1641,56.9021,303.216,9.2593e-05,1.186e-05,0.0,0 STARLINK-3309,1 50158U 21125C   22240.13639831  .00001186  00000-0  92593-4 0  9992,2 50158  53.2154 288.1641 0001974  56.9021 303.2160 15.08847890 38696,6917.856,95.437,541.087,538.356,0.0
50158.0,STARLINK-3309,PAYLOAD,2022-08-28 09:37:57,15.08845255,0.0001844999999999,53.2167,286.9739,56.9947,303.1223,3.0351e-05,1.95e-06,0.0,0 STARLINK-3309,1 50158U 21125C   22240.40136006  .00000195  00000-0  30351-4 0  9991,2 50158  53.2167 286.9739 0001845  56.9947 303.1223 15.08845255 41885,6917.864000000001,95.437,541.006,538.453,0.0
50158.0,STARLINK-3309,PAYLOAD,2022-08-28 12:48:43,15.08846074,0.0001851,53.2167,286.3792,56.8725,303.2445,3.3088e-05,2.39e-06,0.0,0 STARLINK-3309,1 50158U 21125C   22240.53383883  .00000239  00000-0  33088-4 0  9991,2 50158  53.2167 286.3792 0001851  56.8725 303.2445 15.08846074 41908,6917.861999999999,95.437,541.007,538.446,0.0
50158.0,STARLINK-3309,PAYLOAD,2022-08-29 11:04:07,15.08840714,0.0001861,53.2169,282.2174,55.9641,304.1527,-5.288e-05,-1.13e-05,0.0,0 STARLINK-3309,1 50158U 21125C   22241.46119759 -.00001130  00000-0 -52880-4 0  9997,2 50158  53.2169 282.2174 0001861  55.9641 304.1527 15.08840714 38897,6917.878000000002,95.438,541.031,538.456,0.0
50158.0,STARLINK-3309,PAYLOAD,2022-08-29 12:39:31,15.08837555,0.0001754999999999,53.2167,281.9189,55.1147,305.001,-7.6025e-05,-1.498e-05,0.0,0 STARLINK-3309,1 50158U 21125C   22241.52744217 -.00001498  00000-0 -76025-4 0  9991,2 50158  53.2167 281.9189 0001755  55.1147 305.0010 15.08837555 42051,6917.888000000001,95.438,540.967,538.539,0.0
50158.0,STARLINK-3309,PAYLOAD,2022-08-29 14:14:54,15.08837661,0.0001763,53.2167,281.6214,54.8406,305.2751,-7.6327e-05,-1.503e-05,0.0,0 STARLINK-3309,1 50158U 21125C   22241.59368232 -.00001503  00000-0 -76327-4 0  9999,2 50158  53.2167 281.6214 0001763  54.8406 305.2751 15.08837661 42063,6917.888000000001,95.438,540.972,538.533,0.0
50158.0,STARLINK-3309,PAYLOAD,2022-08-30 09:19:31,15.08835441,0.0001799,53.2165,278.0531,53.0928,307.0229,3.341e-05,2.44e-06,0.0,0 STARLINK-3309,1 50158U 21125C   22242.38856324  .00000244  00000-0  33410-4 0  9996,2 50158  53.2165 278.0531 0001799  53.0928 307.0229 15.08835441 42189,6917.894,95.438,541.004,538.515,0.0
50158.0,STARLINK-3309,PAYLOAD,2022-08-30 12:30:18,15.08836082,0.0001821999999999,53.2164,277.4587,50.938,309.1774,3.416e-05,2.56e-06,0.0,0 STARLINK-3309,1 50158U 21125C   22242.52104354  .00000256  00000-0  34160-4 0  9997,2 50158  53.2164 277.4587 0001822  50.9380 309.1774 15.08836082 42200,6917.892,95.438,541.018,538.497,0.0
50158.0,STARLINK-3309,PAYLOAD,2022-08-31 09:10:18,15.08841559,0.0001848,53.2163,273.5927,51.5477,308.5681,6.7876e-05,7.92e-06,0.0,0 STARLINK-3309,1 50158U 21125C   22243.38216144  .00000792  00000-0  67876-4 0  9998,2 50158  53.2163 273.5927 0001848  51.5477 308.5681 15.08841559 39184,6917.876,95.437,541.019,538.462,0.0
50158.0,STARLINK-3309,PAYLOAD,2022-08-31 10:45:41,15.08841185,0.0001881,53.2154,273.2953,51.1717,308.9443,5.7864e-05,6.33e-06,0.0,0 STARLINK-3309,1 50158U 21125C   22243.44840164  .00000633  00000-0  57864-4 0  9990,2 50158  53.2154 273.2953 0001881  51.1717 308.9443 15.08841185 42347,6917.877,95.437,541.043,538.441,0.0
50158.0,STARLINK-3309,PAYLOAD,2022-09-01 09:01:06,15.08834244,0.0001766999999999,53.2153,269.1297,55.457,304.6588,-3.1875e-05,-7.95e-06,0.0,0 STARLINK-3309,1 50158U 21125C   22244.37576763 -.00000795  00000-0 -31875-4 0  9999,2 50158  53.2153 269.1297 0001767  55.4570 304.6588 15.08834244 39334,6917.898,95.438,540.985,538.5409999999998,0.0
50158.0,STARLINK-3309,PAYLOAD,2022-09-01 10:36:29,15.08829185,0.0001774999999999,53.2152,268.834,54.3359,305.7798,-5.3477e-05,-1.139e-05,0.0,0 STARLINK-3309,1 50158U 21125C   22244.44201145 -.00001139  00000-0 -53477-4 0  9991,2 50158  53.2152 268.8340 0001775  54.3359 305.7798 15.08829185 42494,6917.913000000001,95.438,541.006,538.5509999999998,0.0
50158.0,STARLINK-3309,PAYLOAD,2022-09-02 00:54:58,15.08826905,0.0001876999999999,53.2148,266.1564,40.8767,319.2365,4.323e-06,-2.19e-06,0.0,0 STARLINK-3309,1 50158U 21125C   22245.03818070 -.00000219  00000-0  43230-5 0  9992,2 50158  53.2148 266.1564 0001877  40.8767 319.2365 15.08826905 39431,6917.92,95.438,541.0840000000002,538.487,0.0
50158.0,STARLINK-3309,PAYLOAD,2022-09-02 12:02:40,15.08832139,0.0001779,53.2159,264.0763,47.4781,312.6361,1.9397e-06,-2.57e-06,0.0,0 STARLINK-3309,1 50158U 21125C   22245.50185999 -.00000257  00000-0  19397-5 0  9990,2 50158  53.2159 264.0763 0001779  47.4781 312.6361 15.08832139 42658,6917.904,95.438,541.0,538.539,0.0
50158.0,STARLINK-3309,PAYLOAD,2022-09-02 13:38:03,15.08831628,0.0001815,53.2159,263.779,49.9396,310.1755,2.9259e-06,-2.42e-06,0.0,0 STARLINK-3309,1 50158U 21125C   22245.56810063 -.00000242  00000-0  29259-5 0  9995,2 50158  53.2159 263.7790 0001815  49.9396 310.1755 15.08831628 42667,6917.906,95.438,541.0269999999998,538.515,0.0
50158.0,STARLINK-3309,PAYLOAD,2022-09-03 08:42:41,15.0882988,0.0001873,53.2159,260.2106,50.0224,310.0932,0.00013067,1.792e-05,0.0,0 STARLINK-3309,1 50158U 21125C   22246.36298339  .00001792  00000-0  13067-3 0  9998,2 50158  53.2159 260.2106 0001873  50.0224 310.0932 15.08829880 39633,6917.911,95.438,541.072,538.481,0.0
50158.0,STARLINK-3309,PAYLOAD,2022-09-03 18:15:00,15.08834009,0.0001892,53.2159,258.4264,50.7524,309.3636,0.00014699,2.052e-05,0.0,0 STARLINK-3309,1 50158U 21125C   22246.76042330  .00002052  00000-0  14699-3 0  9992,2 50158  53.2159 258.4264 0001892  50.7524 309.3636 15.08834009 42846,6917.899,95.438,541.073,538.455,0.0
50158.0,STARLINK-3309,PAYLOAD,2022-09-04 06:58:05,15.08839623,0.0001904,53.2159,256.0472,51.541,308.5753,0.00015653,2.204e-05,0.0,0 STARLINK-3309,1 50158U 21125C   22247.29034131  .00002204  00000-0  15653-3 0  9991,2 50158  53.2159 256.0472 0001904  51.5410 308.5753 15.08839623 39774,6917.882,95.438,541.064,538.429,0.0
50158.0,STARLINK-3309,PAYLOAD,2022-09-04 10:08:51,15.08844555,0.000192,53.2159,255.4525,51.9549,308.1616,0.0002046999999999,2.972e-05,0.0,0 STARLINK-3309,1 50158U 21125C   22247.42281963  .00002972  00000-0  20470-3 0  9998,2 50158  53.2159 255.4525 0001920  51.9549 308.1616 15.08844555 42948,6917.866,95.437,541.06,538.403,0.0
50158.0,STARLINK-3309,PAYLOAD,2022-09-05 03:38:05,15.08857681,0.0001972,53.2152,252.1814,52.5861,307.531,0.00036105,5.465e-05,0.0,0 STARLINK-3309,1 50158U 21125C   22248.15145485  .00005465  00000-0  36105-3 0  9999,2 50158  53.2152 252.1814 0001972  52.5861 307.5310 15.08857681 39907,6917.826,95.436,541.056,538.327,0.0
50158.0,STARLINK-3309,PAYLOAD,2022-09-05 11:35:01,15.08862245,0.0002013,53.2148,250.6946,52.1565,307.9609,0.00042628,6.507e-05,0.0,0 STARLINK-3309,1 50158U 21125C   22248.48265211  .00006507  00000-0  42628-3 0  9990,2 50158  53.2148 250.6946 0002013  52.1565 307.9609 15.08862245 43109,6917.812,95.436,541.07,538.285,0.0
50158.0,STARLINK-3309,PAYLOAD,2022-09-06 03:28:52,15.08855351,0.0001855,53.2146,247.7199,57.6516,302.4656,0.00011118,1.482e-05,0.0,0 STARLINK-3309,1 50158U 21125C   22249.14504690  .00001482  00000-0  11118-3 0  9998,2 50158  53.2146 247.7199 0001855  57.6516 302.4656 15.08855351 40056,6917.833000000001,95.437,540.982,538.415,0.0
50158.0,STARLINK-3309,PAYLOAD,2022-09-06 08:15:01,15.08841482,0.000199,53.2153,246.8287,49.5207,310.5959,-7.585899999999999e-05,-1.495e-05,0.0,0 STARLINK-3309,1 50158U 21125C   22249.34377308 -.00001495  00000-0 -75859-4 0  9993,2 50158  53.2153 246.8287 0001990  49.5207 310.5959 15.08841482 40088,6917.876,95.437,541.118,538.364,0.0
50158.0,STARLINK-3309,PAYLOAD,2022-09-06 11:25:48,15.08841399,0.0002005999999999,53.2153,246.2341,50.2754,309.8415,-7.8563e-05,-1.538e-05,0.0,0 STARLINK-3309,1 50158U 21125C   22249.47625237 -.00001538  00000-0 -78563-4 0  9997,2 50158  53.2153 246.2341 0002006  50.2754 309.8415 15.08841399 43255,6917.876,95.437,541.129,538.3530000000002,0.0
50158.0,STARLINK-3309,PAYLOAD,2022-09-07 11:16:35,15.08839645,0.0002021999999999,53.2159,241.7741,49.2258,310.8909,-9.9947e-05,-1.879e-05,0.0,0 STARLINK-3309,1 50158U 21125C   22250.46985367 -.00001879  00000-0 -99947-4 0  9998,2 50158  53.2159 241.7741 0002022  49.2258 310.8909 15.08839645 40258,6917.880999999999,95.438,541.145,538.3480000000002,0.0
50158.0,STARLINK-3309,PAYLOAD,2022-09-08 07:56:36,15.08833566,0.0001966,53.2158,237.9085,50.9183,309.1984,2.1646e-05,5.6e-07,0.0,0 STARLINK-3309,1 50158U 21125C   22251.33097599  .00000056  00000-0  21646-4 0  9991,2 50158  53.2158 237.9085 0001966  50.9183 309.1984 15.08833566 43531,6917.9,95.438,541.125,538.405,0.0
50158.0,STARLINK-3309,PAYLOAD,2022-09-08 15:53:31,15.08835332,0.0001991,53.2161,236.4214,49.2051,310.9114,7.842899999999999e-05,9.6e-06,0.0,0 STARLINK-3309,1 50158U 21125C   22251.66217451  .00000960  00000-0  78429-4 0  9993,2 50158  53.2161 236.4214 0001991  49.2051 310.9114 15.08835332 40430,6917.895,95.438,541.137,538.382,0.0
